{"type":"FeatureCollection", "features": [
{"type":"Feature","geometry":{"type":"Polygon","coordinates":[[[-93.39901,44.75376],[-93.39902,44.74655],[-93.37983,44.74633],[-93.38074,44.74091],[-93.38685,44.73344],[-93.38837,44.73239],[-93.39888,44.72783],[-93.39887,44.71731],[-93.37764,44.71724],[-93.35881,44.71752],[-93.3284,44.71755],[-93.32871,44.75003],[-93.32873,44.77578],[-93.32978,44.77579],[-93.32961,44.79109],[-93.33545,44.78663],[-93.33943,44.78671],[-93.34365,44.78848],[-93.34752,44.7912],[-93.35219,44.78998],[-93.35479,44.78587],[-93.3588,44.786],[-93.36302,44.78889],[-93.36658,44.78891],[-93.37824,44.78519],[-93.3816,44.78679],[-93.38481,44.79729],[-93.38895,44.79872],[-93.39423,44.79715],[-93.39859,44.79827],[-93.39857,44.78992],[-93.39901,44.75376]]]},"properties":{"slug":"savage"}},
{"type":"Feature","geometry":{"type":"Polygon","coordinates":[[[-93.55115,44.79789],[-93.55148,44.79241],[-93.54934,44.79164],[-93.5588,44.78341],[-93.56132,44.78026],[-93.56117,44.77309],[-93.56479,44.77316],[-93.56984,44.77176],[-93.57616,44.76748],[-93.57147,44.76549],[-93.57144,44.76186],[-93.56631,44.76176],[-93.56638,44.76827],[-93.56125,44.76829],[-93.56127,44.76949],[-93.55615,44.76905],[-93.55612,44.7654],[-93.56121,44.7653],[-93.56117,44.76167],[-93.55611,44.76165],[-93.55647,44.74904],[-93.55132,44.74908],[-93.54909,44.75098],[-93.54367,44.75104],[-93.54365,44.75285],[-93.54616,44.75466],[-93.54605,44.75785],[-93.55108,44.75772],[-93.55099,44.76162],[-93.5409,44.76214],[-93.54084,44.76575],[-93.53572,44.76555],[-93.53569,44.76906],[-93.52542,44.76713],[-93.52542,44.76858],[-93.52023,44.76831],[-93.52034,44.75172],[-93.52074,44.71771],[-93.50582,44.71775],[-93.49028,44.71766],[-93.4901,44.73215],[-93.48003,44.7321],[-93.47967,44.75379],[-93.45952,44.75375],[-93.4595,44.75736],[-93.44941,44.75749],[-93.44952,44.75389],[-93.43967,44.75403],[-93.43957,44.75761],[-93.42953,44.7576],[-93.42937,44.76125],[-93.4192,44.76113],[-93.41932,44.75389],[-93.39901,44.75376],[-93.39857,44.78992],[-93.39859,44.79827],[-93.40363,44.80348],[-93.40793,44.80561],[-93.41444,44.80767],[-93.4205,44.80694],[-93.42998,44.80966],[-93.43801,44.81307],[-93.44126,44.81125],[-93.44243,44.80708],[-93.44558,44.80474],[-93.45069,44.80346],[-93.45673,44.80316],[-93.45993,44.80579],[-93.46366,44.80665],[-93.47571,44.80434],[-93.48123,44.80474],[-93.4837,44.80779],[-93.48999,44.80461],[-93.49218,44.80485],[-93.49611,44.80954],[-93.49875,44.81037],[-93.50153,44.80836],[-93.50334,44.80474],[-93.51049,44.80508],[-93.51375,44.80454],[-93.52017,44.80218],[-93.52016,44.80504],[-93.54046,44.80477],[-93.54118,44.79875],[-93.54278,44.7975],[-93.54773,44.79562],[-93.55115,44.79789]]]},"properties":{"slug":"shakopee"}},
{"type":"Feature","geometry":{"type":"Polygon","coordinates":[[[-92.98466,44.94899],[-92.98449,44.94006],[-92.98439,44.90948],[-92.98421,44.89459],[-92.97958,44.89463],[-92.97941,44.88921],[-92.97433,44.88926],[-92.97416,44.88385],[-92.97814,44.88382],[-92.98024,44.88504],[-92.98069,44.88742],[-92.98412,44.88742],[-92.984,44.86195],[-92.96415,44.86203],[-92.94383,44.86193],[-92.883,44.86202],[-92.86241,44.86194],[-92.86252,44.90481],[-92.86266,44.91789],[-92.86268,44.9492],[-92.88705,44.94926],[-92.9342,44.94905],[-92.94577,44.94891],[-92.95469,44.94913],[-92.97121,44.94902],[-92.98342,44.94871],[-92.98466,44.94899]]]},"properties":{"slug":"woodbury"}},
{"type":"Feature","geometry":{"type":"Polygon","coordinates":[[[-93.50582,44.71775],[-93.50581,44.71573],[-93.50809,44.7141],[-93.51063,44.71408],[-93.51061,44.71044],[-93.51188,44.70697],[-93.49889,44.70701],[-93.50059,44.70363],[-93.49553,44.70363],[-93.49574,44.69631],[-93.48857,44.69625],[-93.47245,44.70173],[-93.4601,44.69815],[-93.46016,44.69309],[-93.4551,44.69214],[-93.45518,44.68854],[-93.45271,44.68858],[-93.44998,44.69184],[-93.44251,44.69231],[-93.43964,44.69841],[-93.4379,44.70093],[-93.43449,44.6988],[-93.43451,44.69611],[-93.4295,44.69613],[-93.42953,44.69227],[-93.42491,44.69228],[-93.42256,44.69445],[-93.41427,44.69436],[-93.4143,44.69125],[-93.41612,44.68898],[-93.40423,44.68877],[-93.40669,44.69062],[-93.40668,44.69245],[-93.40376,44.6938],[-93.39891,44.69823],[-93.39887,44.70238],[-93.39708,44.7032],[-93.3971,44.70697],[-93.39883,44.70698],[-93.39887,44.71731],[-93.39888,44.72783],[-93.38837,44.73239],[-93.38685,44.73344],[-93.38074,44.74091],[-93.37983,44.74633],[-93.39902,44.74655],[-93.39901,44.75376],[-93.41932,44.75389],[-93.4192,44.76113],[-93.42937,44.76125],[-93.42953,44.7576],[-93.43957,44.75761],[-93.43967,44.75403],[-93.44952,44.75389],[-93.44941,44.75749],[-93.4595,44.75736],[-93.45952,44.75375],[-93.47967,44.75379],[-93.48003,44.7321],[-93.4901,44.73215],[-93.49028,44.71766],[-93.50582,44.71775]],[[-93.49041,44.70651],[-93.49035,44.71046],[-93.48023,44.71043],[-93.48036,44.70811],[-93.4852,44.70812],[-93.48523,44.70647],[-93.49041,44.70651]],[[-93.49031,44.71276],[-93.49028,44.71763],[-93.48514,44.71757],[-93.48515,44.71408],[-93.48702,44.71274],[-93.49031,44.71276]],[[-93.40661,44.69554],[-93.4045,44.69857],[-93.39903,44.69962],[-93.39904,44.69826],[-93.40223,44.69545],[-93.40661,44.69554]]]},"properties":{"slug":"prior-lake"}},
{"type":"Feature","geometry":{"type":"Polygon","coordinates":[[[-93.32961,44.79109],[-93.32978,44.77579],[-93.32873,44.77578],[-93.32871,44.75003],[-93.3284,44.71755],[-93.31834,44.71754],[-93.28167,44.71744],[-93.24834,44.71745],[-93.2482,44.74675],[-93.24802,44.75915],[-93.2459,44.76029],[-93.221,44.77586],[-93.22252,44.77584],[-93.22785,44.77577],[-93.22772,44.80483],[-93.22746,44.82909],[-93.23089,44.82748],[-93.23492,44.82461],[-93.23935,44.8202],[-93.24796,44.81532],[-93.25269,44.81119],[-93.27246,44.80687],[-93.28082,44.80635],[-93.28309,44.80549],[-93.2853,44.80207],[-93.28876,44.80048],[-93.2941,44.79902],[-93.30453,44.7945],[-93.31412,44.79247],[-93.31941,44.79282],[-93.32573,44.79267],[-93.32961,44.79109]]]},"properties":{"slug":"burnsville"}},
{"type":"Feature","geometry":{"type":"Polygon","coordinates":[[[-93.15649,44.68863],[-93.17693,44.68865],[-93.20727,44.68853],[-93.20733,44.65966],[-93.20754,44.63075],[-93.19998,44.63073],[-93.15717,44.63078],[-93.15706,44.62338],[-93.15176,44.62333],[-93.15083,44.62826],[-93.15225,44.63076],[-93.14358,44.63072],[-93.14198,44.63009],[-93.14198,44.62535],[-93.14458,44.62346],[-93.11642,44.62329],[-93.11637,44.6306],[-93.11636,44.65232],[-93.12339,44.65334],[-93.12367,44.65716],[-93.12645,44.6565],[-93.12735,44.65408],[-93.13022,44.65273],[-93.13298,44.65031],[-93.13667,44.64927],[-93.13673,44.64518],[-93.1387,44.64566],[-93.14562,44.64519],[-93.14131,44.66052],[-93.14452,44.66794],[-93.14082,44.66796],[-93.14034,44.66925],[-93.1366,44.66927],[-93.13646,44.69215],[-93.14648,44.69219],[-93.14647,44.68859],[-93.15649,44.68863]],[[-93.13697,44.63001],[-93.13422,44.62969],[-93.13425,44.62704],[-93.13677,44.62702],[-93.13697,44.63001]]]},"properties":{"slug":"farmington"}},
{"type":"Feature","geometry":{"type":"Polygon","coordinates":[[[-93.17854,44.88834],[-93.18263,44.88712],[-93.18297,44.88535],[-93.17961,44.88275],[-93.17862,44.88034],[-93.18121,44.87806],[-93.1858,44.87649],[-93.18788,44.875],[-93.18989,44.87154],[-93.19997,44.86551],[-93.19794,44.862],[-93.15335,44.86193],[-93.11068,44.86192],[-93.10612,44.862],[-93.10593,44.88339],[-93.10583,44.91975],[-93.11128,44.91973],[-93.11282,44.91713],[-93.1159,44.91618],[-93.11713,44.91328],[-93.12123,44.91262],[-93.12375,44.91036],[-93.13379,44.90383],[-93.13676,44.90045],[-93.14395,44.89697],[-93.14393,44.89441],[-93.1468,44.89313],[-93.15187,44.89292],[-93.15439,44.89017],[-93.15687,44.89002],[-93.15703,44.88489],[-93.16163,44.88357],[-93.16678,44.88364],[-93.16818,44.88855],[-93.1721,44.8874],[-93.17569,44.88741],[-93.17854,44.88834]]]},"properties":{"slug":"mendota-heights"}},
{"type":"Feature","geometry":{"type":"Polygon","coordinates":[[[-93.10588,45.00629],[-93.10588,44.99187],[-93.08629,44.99179],[-93.06422,44.99199],[-93.00506,44.99199],[-93.00513,44.97029],[-93.00482,44.93298],[-93.00482,44.91944],[-93.00439,44.90064],[-93.00442,44.89077],[-92.98419,44.89081],[-92.98421,44.89459],[-92.98439,44.90948],[-92.98449,44.94006],[-92.98466,44.94899],[-92.98484,44.96867],[-92.9847,44.99953],[-92.99486,44.99938],[-92.99487,44.99576],[-92.99739,44.99574],[-92.99738,44.99934],[-93.01505,44.99914],[-93.01521,45.02624],[-93.00502,45.02632],[-93.00503,45.02812],[-92.99492,45.02826],[-92.99495,45.03187],[-92.99221,45.03191],[-92.99069,45.02969],[-92.98656,45.03002],[-92.98477,45.02931],[-92.98479,45.03405],[-92.99116,45.03497],[-93.00865,45.03687],[-93.01536,45.03722],[-93.02698,45.03709],[-93.03619,45.03729],[-93.03679,45.0358],[-93.05623,45.03588],[-93.05607,45.02806],[-93.06634,45.02812],[-93.06616,45.01057],[-93.07032,45.00966],[-93.07839,45.00964],[-93.08652,45.01074],[-93.08652,45.00624],[-93.10588,45.00629]]]},"properties":{"slug":"maplewood"}},
{"type":"Feature","geometry":{"type":"Polygon","coordinates":[[[-93.4013,44.90613],[-93.40162,44.89164],[-93.39931,44.89161],[-93.399,44.87737],[-93.39844,44.86911],[-93.39877,44.86204],[-93.39537,44.86202],[-93.3922,44.86027],[-93.38657,44.8601],[-93.38655,44.86199],[-93.35447,44.86206],[-93.35128,44.86325],[-93.34956,44.86191],[-93.31883,44.862],[-93.31882,44.89075],[-93.31882,44.90524],[-93.32899,44.90531],[-93.32906,44.93059],[-93.33924,44.9306],[-93.33929,44.9197],[-93.34967,44.91974],[-93.3496,44.92049],[-93.37064,44.9205],[-93.37581,44.92036],[-93.40147,44.9205],[-93.40112,44.91346],[-93.4013,44.90613]]]},"properties":{"slug":"edina"}},
{"type":"Feature","geometry":{"type":"Polygon","coordinates":[[[-93.52182,45.15291],[-93.52219,45.13833],[-93.52222,45.10924],[-93.52845,45.10483],[-93.52572,45.10326],[-93.52225,45.10346],[-93.52222,45.0871],[-93.52196,45.08012],[-93.52208,45.06556],[-93.50208,45.06558],[-93.48172,45.06575],[-93.44728,45.06567],[-93.44662,45.06639],[-93.44133,45.0647],[-93.43958,45.06564],[-93.40069,45.06574],[-93.40198,45.08025],[-93.40221,45.08672],[-93.40208,45.1017],[-93.40228,45.11069],[-93.40348,45.11069],[-93.40345,45.11553],[-93.40725,45.11611],[-93.40722,45.11946],[-93.41357,45.12009],[-93.41361,45.12347],[-93.40207,45.12323],[-93.40201,45.13315],[-93.40161,45.15204],[-93.42164,45.15224],[-93.47215,45.15233],[-93.52182,45.15291]]]},"properties":{"slug":"maple-grove"}},
{"type":"Feature","geometry":{"type":"Polygon","coordinates":[[[-93.50727,44.94561],[-93.50744,44.93939],[-93.50234,44.93931],[-93.50239,44.93659],[-93.50742,44.93471],[-93.50781,44.9288],[-93.51832,44.92587],[-93.51833,44.92039],[-93.52066,44.92045],[-93.52082,44.9167],[-93.52339,44.91677],[-93.52333,44.91147],[-93.52335,44.89146],[-93.52071,44.8915],[-93.50106,44.89184],[-93.49348,44.89229],[-93.48066,44.89167],[-93.45995,44.89179],[-93.42185,44.89183],[-93.41208,44.89227],[-93.40162,44.89164],[-93.4013,44.90613],[-93.422,44.90634],[-93.42213,44.91753],[-93.42279,44.92092],[-93.42704,44.92088],[-93.42782,44.92185],[-93.42729,44.92611],[-93.42884,44.92975],[-93.4243,44.93242],[-93.42108,44.93279],[-93.42104,44.9369],[-93.41957,44.93913],[-93.41601,44.93918],[-93.41599,44.94243],[-93.42112,44.94244],[-93.42106,44.94574],[-93.42392,44.94548],[-93.42545,44.94749],[-93.42102,44.94888],[-93.41088,44.94955],[-93.41096,44.94048],[-93.40576,44.94047],[-93.40575,44.93871],[-93.40062,44.93875],[-93.40042,44.95011],[-93.4007,44.95359],[-93.40064,44.96405],[-93.40556,44.96411],[-93.40556,44.97013],[-93.4043,44.97302],[-93.41051,44.9729],[-93.41047,44.97855],[-93.43089,44.97884],[-93.46027,44.97855],[-93.46924,44.97869],[-93.4944,44.97847],[-93.49411,44.97493],[-93.49139,44.97442],[-93.48792,44.97805],[-93.48527,44.9762],[-93.48773,44.9745],[-93.48525,44.97132],[-93.47672,44.97138],[-93.47674,44.96579],[-93.48688,44.96585],[-93.4892,44.96409],[-93.49198,44.9641],[-93.49202,44.95563],[-93.4973,44.95113],[-93.49984,44.95064],[-93.50206,44.95346],[-93.50223,44.94562],[-93.50727,44.94561]]]},"properties":{"slug":"minnetonka"}},
{"type":"Feature","geometry":{"type":"Polygon","coordinates":[[[-93.41047,44.97855],[-93.41051,44.9729],[-93.4043,44.97302],[-93.40556,44.97013],[-93.40556,44.96411],[-93.40064,44.96405],[-93.4007,44.95359],[-93.40042,44.95011],[-93.40062,44.93875],[-93.40061,44.93513],[-93.39242,44.9347],[-93.38567,44.93557],[-93.38083,44.93502],[-93.38081,44.9297],[-93.37913,44.92886],[-93.37915,44.92607],[-93.37511,44.92635],[-93.37068,44.92747],[-93.37064,44.9205],[-93.3496,44.92049],[-93.34967,44.91974],[-93.33929,44.9197],[-93.33924,44.9306],[-93.32906,44.93059],[-93.32911,44.94438],[-93.32883,44.94554],[-93.32869,44.96648],[-93.34403,44.96665],[-93.34404,44.97047],[-93.34949,44.97111],[-93.36201,44.971],[-93.36476,44.97125],[-93.38193,44.971],[-93.40057,44.97133],[-93.40042,44.9785],[-93.41047,44.97855]]]},"properties":{"slug":"st-louis-park"}},
{"type":"Feature","geometry":{"type":"Polygon","coordinates":[[[-93.40228,45.11069],[-93.40208,45.1017],[-93.40221,45.08672],[-93.40198,45.08025],[-93.40069,45.06574],[-93.3905,45.06559],[-93.37025,45.06567],[-93.34982,45.0657],[-93.35109,45.08002],[-93.35098,45.08723],[-93.32076,45.08731],[-93.28106,45.0872],[-93.28086,45.08397],[-93.28376,45.08044],[-93.28442,45.07759],[-93.28249,45.07262],[-93.28081,45.07172],[-93.27903,45.08017],[-93.28013,45.08387],[-93.27993,45.08997],[-93.27833,45.10337],[-93.28033,45.10577],[-93.28795,45.11074],[-93.29146,45.11226],[-93.29507,45.11533],[-93.29606,45.11942],[-93.29713,45.12697],[-93.30213,45.13317],[-93.30762,45.1372],[-93.30893,45.1404],[-93.31154,45.14378],[-93.31573,45.14537],[-93.32313,45.14717],[-93.32839,45.15151],[-93.35038,45.15183],[-93.37525,45.15199],[-93.40161,45.15204],[-93.40201,45.13315],[-93.40207,45.12323],[-93.38894,45.12358],[-93.39066,45.11557],[-93.39127,45.11069],[-93.40228,45.11069]]]},"properties":{"slug":"brooklyn-park"}},
{"type":"Feature","geometry":{"type":"Polygon","coordinates":[[[-93.32869,44.96648],[-93.32883,44.94554],[-93.32911,44.94438],[-93.32906,44.93059],[-93.32899,44.90531],[-93.31882,44.90524],[-93.31882,44.89075],[-93.30659,44.89064],[-93.29732,44.89031],[-93.29363,44.88979],[-93.28999,44.8901],[-93.27952,44.89004],[-93.27682,44.89055],[-93.2529,44.89072],[-93.25529,44.89544],[-93.25464,44.89793],[-93.24831,44.89795],[-93.24505,44.89724],[-93.22259,44.89682],[-93.22037,44.8949],[-93.21719,44.89614],[-93.21627,44.89309],[-93.21089,44.89309],[-93.21075,44.89631],[-93.20769,44.89632],[-93.2076,44.90539],[-93.19404,44.90541],[-93.19874,44.90776],[-93.20037,44.90963],[-93.20136,44.91976],[-93.19979,44.92703],[-93.20079,44.9343],[-93.2001,44.94151],[-93.20206,44.94838],[-93.2036,44.95098],[-93.20775,44.95304],[-93.20759,44.98807],[-93.2076,45.00064],[-93.20764,45.00621],[-93.21767,45.00604],[-93.21787,45.01337],[-93.22684,45.01321],[-93.22693,45.03567],[-93.27215,45.0355],[-93.28343,45.03537],[-93.28083,45.04357],[-93.28223,45.05117],[-93.3195,45.05125],[-93.31943,45.0419],[-93.32261,45.04264],[-93.32323,45.04045],[-93.31931,45.04042],[-93.31879,45.03546],[-93.31844,45.02047],[-93.31852,45.00604],[-93.31841,44.97716],[-93.32865,44.97714],[-93.32869,44.96648]]]},"properties":{"slug":"minneapolis"}},
{"type":"Feature","geometry":{"type":"Polygon","coordinates":[[[-93.26586,45.21152],[-93.26587,45.19701],[-93.26622,45.1658],[-93.26678,45.14016],[-93.26689,45.1246],[-93.26415,45.12455],[-93.2277,45.12453],[-93.19882,45.1244],[-93.1988,45.11895],[-93.18836,45.11893],[-93.18841,45.12438],[-93.15339,45.12422],[-93.15335,45.12777],[-93.15855,45.12776],[-93.15841,45.13874],[-93.16375,45.13884],[-93.16369,45.13154],[-93.18428,45.13161],[-93.1843,45.13523],[-93.17419,45.13521],[-93.174,45.13766],[-93.18061,45.13769],[-93.18102,45.13892],[-93.17397,45.13891],[-93.17388,45.14605],[-93.16353,45.14599],[-93.16348,45.15321],[-93.14294,45.15293],[-93.14234,45.21095],[-93.20356,45.21142],[-93.26586,45.21152]],[[-93.17388,45.14605],[-93.17891,45.1461],[-93.17846,45.14793],[-93.17385,45.14789],[-93.17388,45.14605]]]},"properties":{"slug":"blaine"}},
{"type":"Feature","geometry":{"type":"Polygon","coordinates":[[[-93.39877,44.86204],[-93.39858,44.84951],[-93.3989,44.83984],[-93.3985,44.83504],[-93.39847,44.80731],[-93.39859,44.79827],[-93.39423,44.79715],[-93.38895,44.79872],[-93.38481,44.79729],[-93.3816,44.78679],[-93.37824,44.78519],[-93.36658,44.78891],[-93.36302,44.78889],[-93.3588,44.786],[-93.35479,44.78587],[-93.35219,44.78998],[-93.34752,44.7912],[-93.34365,44.78848],[-93.33943,44.78671],[-93.33545,44.78663],[-93.32961,44.79109],[-93.32573,44.79267],[-93.31941,44.79282],[-93.31412,44.79247],[-93.30453,44.7945],[-93.2941,44.79902],[-93.28876,44.80048],[-93.2853,44.80207],[-93.28309,44.80549],[-93.28082,44.80635],[-93.27246,44.80687],[-93.25269,44.81119],[-93.24796,44.81532],[-93.23935,44.8202],[-93.23492,44.82461],[-93.23089,44.82748],[-93.22746,44.82909],[-93.22052,44.83105],[-93.21906,44.83224],[-93.22191,44.83696],[-93.22111,44.83848],[-93.21649,44.83871],[-93.21144,44.83974],[-93.20776,44.84363],[-93.20341,44.85236],[-93.1983,44.85816],[-93.19728,44.86011],[-93.19794,44.862],[-93.24798,44.86192],[-93.27831,44.86178],[-93.28258,44.86202],[-93.30439,44.86191],[-93.31883,44.862],[-93.34956,44.86191],[-93.35128,44.86325],[-93.35447,44.86206],[-93.38655,44.86199],[-93.38657,44.8601],[-93.3922,44.86027],[-93.39537,44.86202],[-93.39877,44.86204]]]},"properties":{"slug":"bloomington"}},
{"type":"Feature","geometry":{"type":"Polygon","coordinates":[[[-93.52071,44.8915],[-93.52081,44.86403],[-93.5114,44.86765],[-93.51133,44.85837],[-93.52085,44.85854],[-93.52093,44.84768],[-93.5208,44.82004],[-93.52016,44.80504],[-93.52017,44.80218],[-93.51375,44.80454],[-93.51049,44.80508],[-93.50334,44.80474],[-93.50153,44.80836],[-93.49875,44.81037],[-93.49611,44.80954],[-93.49218,44.80485],[-93.48999,44.80461],[-93.4837,44.80779],[-93.48123,44.80474],[-93.47571,44.80434],[-93.46366,44.80665],[-93.45993,44.80579],[-93.45673,44.80316],[-93.45069,44.80346],[-93.44558,44.80474],[-93.44243,44.80708],[-93.44126,44.81125],[-93.43801,44.81307],[-93.42998,44.80966],[-93.4205,44.80694],[-93.41444,44.80767],[-93.40793,44.80561],[-93.40363,44.80348],[-93.39859,44.79827],[-93.39847,44.80731],[-93.3985,44.83504],[-93.3989,44.83984],[-93.39858,44.84951],[-93.39877,44.86204],[-93.39844,44.86911],[-93.399,44.87737],[-93.39931,44.89161],[-93.40162,44.89164],[-93.41208,44.89227],[-93.42185,44.89183],[-93.45995,44.89179],[-93.48066,44.89167],[-93.49348,44.89229],[-93.50106,44.89184],[-93.52071,44.8915]]]},"properties":{"slug":"eden-prairie"}},
{"type":"Feature","geometry":{"type":"Polygon","coordinates":[[[-93.52208,45.06556],[-93.52228,45.04368],[-93.52265,45.03626],[-93.52221,45.02898],[-93.5224,44.99977],[-93.52254,44.9816],[-93.51196,44.98178],[-93.5105,44.97821],[-93.50805,44.97878],[-93.50223,44.98225],[-93.50214,44.9784],[-93.4944,44.97847],[-93.46924,44.97869],[-93.46027,44.97855],[-93.43089,44.97884],[-93.41047,44.97855],[-93.40042,44.9785],[-93.40057,44.98076],[-93.40081,45.00748],[-93.40064,45.01492],[-93.40079,45.04423],[-93.40069,45.06574],[-93.43958,45.06564],[-93.44133,45.0647],[-93.44662,45.06639],[-93.44728,45.06567],[-93.48172,45.06575],[-93.50208,45.06558],[-93.52208,45.06556]],[[-93.42795,45.00267],[-93.42643,45.00463],[-93.42396,45.0057],[-93.42051,45.00563],[-93.41429,45.0012],[-93.41348,44.99896],[-93.41734,44.99219],[-93.42032,44.99219],[-93.42094,44.99685],[-93.42224,44.99867],[-93.42699,45.00104],[-93.42795,45.00267]]]},"properties":{"slug":"plymouth"}},
{"type":"Feature","geometry":{"type":"Polygon","coordinates":[[[-93.35741,45.21228],[-93.36263,45.21231],[-93.3649,45.20971],[-93.36566,45.20115],[-93.36302,45.20116],[-93.36311,45.19847],[-93.36823,45.19757],[-93.36828,45.19027],[-93.37354,45.19037],[-93.3733,45.17817],[-93.35883,45.17497],[-93.3544,45.17066],[-93.34623,45.16017],[-93.33575,45.15514],[-93.33057,45.15303],[-93.32839,45.15151],[-93.32313,45.14717],[-93.31573,45.14537],[-93.31154,45.14378],[-93.30893,45.1404],[-93.30762,45.1372],[-93.30213,45.13317],[-93.29713,45.12697],[-93.29606,45.11942],[-93.29074,45.1192],[-93.28499,45.12017],[-93.28439,45.11866],[-93.27784,45.1187],[-93.2806,45.12446],[-93.26689,45.1246],[-93.26678,45.14016],[-93.26622,45.1658],[-93.26587,45.19701],[-93.26586,45.21152],[-93.3218,45.21232],[-93.35741,45.21228]]]},"properties":{"slug":"coon-rapids"}},
{"type":"Feature","geometry":{"type":"Polygon","coordinates":[[[-93.10583,44.91975],[-93.10593,44.88339],[-93.09538,44.88335],[-93.09417,44.8836],[-93.07156,44.88354],[-93.06529,44.88473],[-93.06539,44.91953],[-93.09091,44.91967],[-93.09093,44.92324],[-93.09604,44.92329],[-93.09602,44.91968],[-93.10583,44.91975]]]},"properties":{"slug":"west-st-paul"}},
{"type":"Feature","geometry":{"type":"Polygon","coordinates":[[[-93.20759,44.98807],[-93.20775,44.95304],[-93.2036,44.95098],[-93.20206,44.94838],[-93.2001,44.94151],[-93.20079,44.9343],[-93.19979,44.92703],[-93.20136,44.91976],[-93.20037,44.90963],[-93.19874,44.90776],[-93.19404,44.90541],[-93.19221,44.90438],[-93.19068,44.90122],[-93.19038,44.89799],[-93.18739,44.89512],[-93.17722,44.89393],[-93.17854,44.88834],[-93.17569,44.88741],[-93.1721,44.8874],[-93.16818,44.88855],[-93.16435,44.89034],[-93.15686,44.89187],[-93.15303,44.8936],[-93.14668,44.89931],[-93.13649,44.9061],[-93.13367,44.91027],[-93.13194,44.91603],[-93.12871,44.91965],[-93.11128,44.91973],[-93.10583,44.91975],[-93.09602,44.91968],[-93.09604,44.92329],[-93.09093,44.92324],[-93.09091,44.91967],[-93.06539,44.91953],[-93.05164,44.9195],[-93.04518,44.91231],[-93.04212,44.9051],[-93.03473,44.89783],[-93.02461,44.89407],[-93.02004,44.89075],[-93.00442,44.89077],[-93.00439,44.90064],[-93.00482,44.91944],[-93.00482,44.93298],[-93.00513,44.97029],[-93.00506,44.99199],[-93.06422,44.99199],[-93.08629,44.99179],[-93.10588,44.99187],[-93.1261,44.99179],[-93.14646,44.99198],[-93.15655,44.99184],[-93.15662,44.98823],[-93.16686,44.98815],[-93.16702,44.97731],[-93.1873,44.97724],[-93.18719,44.98809],[-93.19738,44.98807],[-93.20759,44.98807]]]},"properties":{"slug":"saint-paul"}},
{"type":"Feature","geometry":{"type":"Polygon","coordinates":[[[-93.20809,45.03574],[-93.20764,45.00621],[-93.2076,45.00064],[-93.19988,45.00069],[-93.19737,44.99892],[-93.16684,44.99897],[-93.15658,44.99909],[-93.15655,44.99184],[-93.14646,44.99198],[-93.1261,44.99179],[-93.10588,44.99187],[-93.10588,45.00629],[-93.10621,45.03587],[-93.13376,45.03589],[-93.14708,45.03576],[-93.18771,45.03575],[-93.20809,45.03574]]]},"properties":{"slug":"roseville"}},
{"type":"Feature","geometry":{"type":"Polygon","coordinates":[[[-93.02139,44.78971],[-93.02152,44.78675],[-93.01972,44.78172],[-93.01596,44.77556],[-93.01293,44.77376],[-93.00598,44.77169],[-93.00073,44.77191],[-92.99477,44.7747],[-92.99155,44.77533],[-92.98607,44.77531],[-92.98132,44.77433],[-92.9748,44.77232],[-92.96385,44.77006],[-92.95408,44.77115],[-92.93973,44.77567],[-92.93747,44.77802],[-92.93204,44.7811],[-92.92863,44.78142],[-92.92536,44.78078],[-92.91332,44.7747],[-92.9051,44.7736],[-92.89812,44.77368],[-92.89203,44.77444],[-92.88671,44.77461],[-92.88256,44.77411],[-92.87839,44.7751],[-92.87305,44.77549],[-92.86278,44.77557],[-92.86296,44.80506],[-92.86241,44.86194],[-92.883,44.86202],[-92.94383,44.86193],[-92.96415,44.86203],[-92.984,44.86195],[-92.98396,44.85159],[-92.984,44.84677],[-92.97501,44.84015],[-92.97473,44.83342],[-92.97704,44.83341],[-92.97703,44.83103],[-92.97986,44.831],[-92.97987,44.82616],[-92.98405,44.82614],[-92.98399,44.81391],[-92.98385,44.80085],[-92.9775,44.80091],[-92.98008,44.79832],[-92.98196,44.79461],[-92.98382,44.79518],[-92.98379,44.79013],[-92.99385,44.79009],[-92.99378,44.79372],[-93.00889,44.79387],[-93.00884,44.79012],[-93.02002,44.79007],[-93.02139,44.78971]]]},"properties":{"slug":"cottage-grove"}},
{"type":"Feature","geometry":{"type":"Polygon","coordinates":[[[-93.1909,44.43173],[-93.18576,44.4317],[-93.18654,44.42983],[-93.18336,44.42809],[-93.18088,44.42807],[-93.18089,44.43167],[-93.1759,44.43163],[-93.17586,44.43523],[-93.17081,44.43519],[-93.17081,44.43322],[-93.16578,44.43341],[-93.16181,44.43276],[-93.16073,44.4315],[-93.14787,44.43158],[-93.14439,44.4311],[-93.14169,44.43238],[-93.14077,44.43432],[-93.14073,44.44607],[-93.13849,44.44748],[-93.1343,44.44737],[-93.13206,44.44637],[-93.12926,44.45398],[-93.13131,44.45498],[-93.13087,44.45693],[-93.1369,44.45685],[-93.13693,44.46043],[-93.14085,44.46041],[-93.14088,44.46782],[-93.1459,44.46776],[-93.14592,44.47498],[-93.14881,44.47656],[-93.15177,44.47136],[-93.15661,44.47134],[-93.15654,44.47487],[-93.15911,44.47489],[-93.15973,44.47133],[-93.1661,44.47134],[-93.16837,44.47753],[-93.1605,44.47903],[-93.16249,44.48051],[-93.16936,44.48055],[-93.17073,44.47846],[-93.18077,44.47841],[-93.1808,44.47491],[-93.18924,44.475],[-93.19306,44.47558],[-93.19585,44.47687],[-93.2034,44.47693],[-93.20343,44.48056],[-93.20598,44.48056],[-93.20727,44.48238],[-93.2111,44.4821],[-93.21112,44.48603],[-93.21475,44.48602],[-93.21471,44.48225],[-93.22144,44.48223],[-93.2213,44.47139],[-93.21474,44.4715],[-93.18085,44.47131],[-93.18088,44.46953],[-93.18592,44.46953],[-93.18843,44.46775],[-93.18857,44.45336],[-93.19107,44.45336],[-93.19106,44.44979],[-93.18838,44.44979],[-93.18838,44.4465],[-93.19432,44.44257],[-93.19939,44.4379],[-93.20236,44.43544],[-93.19096,44.43534],[-93.1909,44.43173]]]},"properties":{"slug":"northfield"}},
{"type":"Feature","geometry":{"type":"Polygon","coordinates":[[[-93.22252,44.77584],[-93.221,44.77586],[-93.2459,44.76029],[-93.24802,44.75915],[-93.2482,44.74675],[-93.24834,44.71745],[-93.17683,44.71735],[-93.17189,44.71705],[-93.15678,44.71713],[-93.15679,44.72248],[-93.15615,44.72462],[-93.15601,44.73959],[-93.15646,44.74121],[-93.15636,44.7537],[-93.15876,44.75587],[-93.15632,44.7571],[-93.15636,44.76869],[-93.15327,44.76807],[-93.15299,44.77051],[-93.15136,44.77312],[-93.15233,44.7746],[-93.15641,44.77369],[-93.15642,44.77576],[-93.17869,44.77579],[-93.19707,44.77601],[-93.2222,44.77603],[-93.22252,44.77584]]]},"properties":{"slug":"apple-valley"}},
{"type":"Feature","geometry":{"type":"Polygon","coordinates":[[[-93.22746,44.82909],[-93.22772,44.80483],[-93.22785,44.77577],[-93.22252,44.77584],[-93.2222,44.77603],[-93.19707,44.77601],[-93.17869,44.77579],[-93.15642,44.77576],[-93.10626,44.77569],[-93.10617,44.80076],[-93.10555,44.80276],[-93.10677,44.8059],[-93.10609,44.80776],[-93.10602,44.8197],[-93.10612,44.862],[-93.11068,44.86192],[-93.15335,44.86193],[-93.19794,44.862],[-93.19728,44.86011],[-93.1983,44.85816],[-93.20341,44.85236],[-93.20776,44.84363],[-93.21144,44.83974],[-93.21649,44.83871],[-93.22111,44.83848],[-93.22191,44.83696],[-93.21906,44.83224],[-93.22052,44.83105],[-93.22746,44.82909]]]},"properties":{"slug":"eagan"}},
{"type":"Feature","geometry":{"type":"Polygon","coordinates":[[[-93.31834,44.71754],[-93.31842,44.70339],[-93.31833,44.67413],[-93.31846,44.66753],[-93.31871,44.63058],[-93.26841,44.63076],[-93.26838,44.62486],[-93.26403,44.62484],[-93.26126,44.6262],[-93.25947,44.63078],[-93.23815,44.63069],[-93.2354,44.62346],[-93.23225,44.62422],[-93.22798,44.62346],[-93.2178,44.62347],[-93.21776,44.62626],[-93.2076,44.62623],[-93.20769,44.6235],[-93.20122,44.62352],[-93.2,44.62542],[-93.19998,44.63073],[-93.20754,44.63075],[-93.20733,44.65966],[-93.20727,44.68853],[-93.17693,44.68865],[-93.15649,44.68863],[-93.15653,44.71713],[-93.15678,44.71713],[-93.17189,44.71705],[-93.17683,44.71735],[-93.24834,44.71745],[-93.28167,44.71744],[-93.31834,44.71754]]]},"properties":{"slug":"lakeville"}},
{"type":"Feature","geometry":{"type":"Polygon","coordinates":[[[-93.15642,44.77576],[-93.15641,44.77369],[-93.15233,44.7746],[-93.15136,44.77312],[-93.15299,44.77051],[-93.15327,44.76807],[-93.15636,44.76869],[-93.15632,44.7571],[-93.15876,44.75587],[-93.15636,44.7537],[-93.15646,44.74121],[-93.15601,44.73959],[-93.15615,44.72462],[-93.15679,44.72248],[-93.15678,44.71713],[-93.15653,44.71713],[-93.14231,44.71738],[-93.12928,44.71714],[-93.11624,44.71744],[-93.09092,44.71749],[-93.07678,44.71774],[-93.06939,44.71729],[-93.04509,44.71732],[-93.04497,44.72584],[-93.03491,44.7259],[-93.03493,44.72452],[-93.02582,44.72443],[-93.02555,44.71718],[-93.01509,44.71711],[-92.97428,44.71682],[-92.97455,44.73167],[-92.97435,44.75071],[-92.9748,44.77232],[-92.98132,44.77433],[-92.98607,44.77531],[-92.99155,44.77533],[-92.99477,44.7747],[-93.00073,44.77191],[-93.00598,44.77169],[-93.01293,44.77376],[-93.01596,44.77556],[-93.03412,44.77554],[-93.06493,44.77568],[-93.10626,44.77569],[-93.15642,44.77576]]]},"properties":{"slug":"rosemount"}},
{"type":"Feature","geometry":{"type":"Polygon","coordinates":[[[-93.06539,44.91953],[-93.06529,44.88473],[-93.06529,44.88356],[-93.05242,44.88346],[-93.04993,44.88211],[-93.04498,44.88207],[-93.04564,44.8799],[-93.04539,44.86729],[-93.04501,44.8655],[-93.03993,44.8655],[-93.03995,44.86385],[-93.03597,44.86381],[-93.0361,44.85677],[-93.03199,44.85341],[-93.03148,44.84814],[-93.02779,44.84815],[-93.02961,44.85527],[-93.02971,44.8603],[-93.02458,44.86033],[-93.02515,44.86173],[-93.02982,44.86174],[-93.02986,44.86414],[-93.0156,44.8641],[-93.01525,44.86689],[-93.01153,44.86693],[-93.01264,44.8691],[-93.01647,44.88461],[-93.02004,44.89075],[-93.02461,44.89407],[-93.03473,44.89783],[-93.04212,44.9051],[-93.04518,44.91231],[-93.05164,44.9195],[-93.06539,44.91953]]]},"properties":{"slug":"south-st-paul"}},
{"type":"Feature","geometry":{"type":"Polygon","coordinates":[[[-93.10612,44.862],[-93.10602,44.8197],[-93.10609,44.80776],[-93.10677,44.8059],[-93.10555,44.80276],[-93.10617,44.80076],[-93.10626,44.77569],[-93.06493,44.77568],[-93.03412,44.77554],[-93.01596,44.77556],[-93.01972,44.78172],[-93.02152,44.78675],[-93.02139,44.78971],[-93.02035,44.79423],[-93.01838,44.7985],[-93.01547,44.80263],[-93.00471,44.81487],[-93.00571,44.81818],[-93.01106,44.83353],[-93.01187,44.83672],[-93.01121,44.84191],[-93.00947,44.84792],[-93.00856,44.85516],[-93.00914,44.86185],[-93.01153,44.86693],[-93.01525,44.86689],[-93.0156,44.8641],[-93.02986,44.86414],[-93.02982,44.86174],[-93.02515,44.86173],[-93.02458,44.86033],[-93.02971,44.8603],[-93.02961,44.85527],[-93.02779,44.84815],[-93.03148,44.84814],[-93.03199,44.85341],[-93.0361,44.85677],[-93.03597,44.86381],[-93.03995,44.86385],[-93.03993,44.8655],[-93.04501,44.8655],[-93.04539,44.86729],[-93.04564,44.8799],[-93.04498,44.88207],[-93.04993,44.88211],[-93.05242,44.88346],[-93.06529,44.88356],[-93.06529,44.88473],[-93.07156,44.88354],[-93.09417,44.8836],[-93.09538,44.88335],[-93.09268,44.88298],[-93.08733,44.88075],[-93.08062,44.87733],[-93.08066,44.86906],[-93.08514,44.86187],[-93.10612,44.862]]]},"properties":{"slug":"inver-grove-heights"}}
]}