{"type":"FeatureCollection", "features": [
{"type":"Feature","geometry":{"type":"Polygon","coordinates":[[[-93.79443,44.88417],[-93.7963,44.88276],[-93.79927,44.88103],[-93.80115,44.87941],[-93.80159,44.87851],[-93.8042,44.87685],[-93.806,44.87514],[-93.80687,44.87403],[-93.8078,44.87213],[-93.81108,44.87005],[-93.81278,44.8679],[-93.8136,44.86629],[-93.81377,44.86492],[-93.81351,44.8629],[-93.81291,44.86141],[-93.81305,44.86061],[-93.81213,44.85893],[-93.81119,44.85797],[-93.80968,44.85708],[-93.8076,44.85652],[-93.80305,44.85656],[-93.80144,44.85701],[-93.79998,44.85788],[-93.79941,44.85896],[-93.79938,44.86076],[-93.79905,44.86218],[-93.79767,44.86217],[-93.79584,44.86127],[-93.79322,44.85919],[-93.79166,44.85824],[-93.79138,44.85764],[-93.7919,44.85694],[-93.79381,44.85863],[-93.79534,44.85806],[-93.79562,44.85647],[-93.79573,44.85409],[-93.79518,44.85314],[-93.79441,44.85284],[-93.78774,44.85221],[-93.78455,44.85242],[-93.78216,44.85245],[-93.77994,44.85219],[-93.77579,44.85211],[-93.77326,44.85218],[-93.77015,44.85282],[-93.76598,44.85451],[-93.76425,44.85558],[-93.76271,44.85681],[-93.76132,44.85829],[-93.75917,44.86091],[-93.75859,44.86195],[-93.75696,44.86592],[-93.75701,44.86867],[-93.75907,44.87125],[-93.75976,44.87266],[-93.76173,44.87354],[-93.76258,44.87419],[-93.76397,44.87693],[-93.76488,44.87829],[-93.76531,44.8796],[-93.76522,44.88064],[-93.76457,44.88151],[-93.76447,44.88241],[-93.7649,44.88393],[-93.76602,44.88489],[-93.76867,44.88574],[-93.77101,44.8859],[-93.77224,44.88561],[-93.77744,44.88551],[-93.78251,44.88617],[-93.78758,44.88617],[-93.7901,44.88582],[-93.79341,44.88491],[-93.79443,44.88417]],[[-93.78728,44.86032],[-93.7871,44.8621],[-93.78547,44.86264],[-93.78273,44.86248],[-93.78024,44.86183],[-93.77954,44.86114],[-93.78083,44.86042],[-93.78306,44.86049],[-93.78658,44.8596],[-93.78728,44.86032]]]},"properties":{"lake":"lake-waconia","acres":3068}},
{"type":"Feature","geometry":{"type":"Polygon","coordinates":[[[-93.28052,44.72381],[-93.2796,44.72263],[-93.27867,44.72249],[-93.27756,44.72396],[-93.27695,44.72404],[-93.27686,44.7223],[-93.27645,44.72123],[-93.2757,44.72029],[-93.27367,44.72006],[-93.27314,44.71874],[-93.27194,44.7194],[-93.27278,44.72003],[-93.27407,44.72023],[-93.2738,44.7208],[-93.27233,44.72192],[-93.2716,44.72188],[-93.27057,44.72078],[-93.26834,44.72073],[-93.26684,44.72092],[-93.26732,44.71988],[-93.26847,44.71931],[-93.26978,44.71935],[-93.27019,44.71803],[-93.27111,44.71767],[-93.27037,44.71673],[-93.26885,44.71632],[-93.26725,44.71748],[-93.26435,44.7169],[-93.26352,44.71725],[-93.26284,44.71822],[-93.26358,44.71971],[-93.26231,44.72106],[-93.26149,44.72149],[-93.25926,44.72101],[-93.2578,44.72043],[-93.25753,44.71875],[-93.25669,44.718],[-93.25536,44.71808],[-93.25457,44.71851],[-93.25442,44.72158],[-93.25375,44.7218],[-93.25377,44.72266],[-93.25663,44.72288],[-93.25842,44.72355],[-93.25911,44.72533],[-93.26034,44.72607],[-93.26182,44.72625],[-93.26327,44.72606],[-93.26531,44.72532],[-93.26691,44.7251],[-93.26843,44.72429],[-93.26976,44.72487],[-93.27187,44.72515],[-93.27442,44.72609],[-93.2755,44.72667],[-93.27682,44.72699],[-93.27775,44.72659],[-93.27766,44.7251],[-93.27858,44.72392],[-93.27996,44.72418],[-93.28052,44.72381]]]},"properties":{"lake":"crystal-lake","acres":291}},
{"type":"Feature","geometry":{"type":"Polygon","coordinates":[[[-93.30341,44.70184],[-93.30163,44.70271],[-93.30177,44.7044],[-93.30241,44.70521],[-93.30601,44.7056],[-93.30696,44.70489],[-93.30806,44.70515],[-93.30861,44.70469],[-93.3097,44.70482],[-93.3112,44.70411],[-93.31262,44.70463],[-93.31344,44.70443],[-93.31449,44.70473],[-93.31581,44.70421],[-93.31662,44.70306],[-93.3138,44.70177],[-93.30979,44.70155],[-93.30368,44.70171],[-93.30341,44.70184]]]},"properties":{"lake":"orchard-lake","acres":96}},
{"type":"Feature","geometry":{"type":"Polygon","coordinates":[[[-93.2933,44.67303],[-93.29272,44.67244],[-93.2926,44.67074],[-93.29063,44.66825],[-93.28864,44.66737],[-93.28809,44.66871],[-93.28699,44.66958],[-93.2853,44.6685],[-93.28431,44.66668],[-93.28398,44.66468],[-93.28256,44.66207],[-93.27785,44.65909],[-93.27395,44.65843],[-93.27168,44.65888],[-93.26474,44.65841],[-93.26412,44.65949],[-93.26523,44.66025],[-93.26615,44.65995],[-93.26731,44.66051],[-93.27016,44.66092],[-93.27152,44.6607],[-93.273,44.66142],[-93.276,44.66108],[-93.27618,44.66205],[-93.27712,44.664],[-93.27697,44.66489],[-93.27804,44.66475],[-93.27904,44.66413],[-93.27971,44.66498],[-93.27965,44.66622],[-93.28151,44.66674],[-93.28205,44.6664],[-93.28309,44.66726],[-93.28431,44.66945],[-93.28681,44.67057],[-93.2885,44.66955],[-93.29015,44.67],[-93.29036,44.67157],[-93.29016,44.67337],[-93.29115,44.67327],[-93.29202,44.67409],[-93.29316,44.67391],[-93.2933,44.67303]]]},"properties":{"lake":"lake-marion","acres":185}},
{"type":"Feature","geometry":{"type":"MultiPolygon","coordinates":[[[[-93.64335,44.95168],[-93.64289,44.9529],[-93.64306,44.95411],[-93.64565,44.95577],[-93.64701,44.95605],[-93.64845,44.95595],[-93.65176,44.95713],[-93.65424,44.95822],[-93.65756,44.95854],[-93.6589,44.95836],[-93.65784,44.95727],[-93.65879,44.95607],[-93.66152,44.95479],[-93.66237,44.95389],[-93.66186,44.95323],[-93.66058,44.95256],[-93.66039,44.95092],[-93.65991,44.94953],[-93.65991,44.94773],[-93.65832,44.94725],[-93.65643,44.94745],[-93.65566,44.94785],[-93.65462,44.94736],[-93.6545,44.94843],[-93.65607,44.94891],[-93.65559,44.95013],[-93.65471,44.95116],[-93.65399,44.95108],[-93.65185,44.95],[-93.65125,44.9495],[-93.648,44.94884],[-93.64686,44.94907],[-93.64641,44.94834],[-93.64643,44.94739],[-93.64525,44.94613],[-93.64402,44.94416],[-93.64107,44.9429],[-93.63959,44.94131],[-93.64129,44.94018],[-93.64208,44.94131],[-93.64499,44.94269],[-93.64555,44.94349],[-93.64706,44.94437],[-93.64896,44.94468],[-93.651,44.94351],[-93.65183,44.944],[-93.65507,44.94503],[-93.65758,44.9448],[-93.6587,44.94545],[-93.66114,44.9463],[-93.6627,44.94561],[-93.6645,44.9455],[-93.66323,44.94463],[-93.66322,44.94345],[-93.66206,44.94296],[-93.66118,44.94209],[-93.65855,44.94025],[-93.65762,44.94015],[-93.65725,44.93937],[-93.65561,44.93864],[-93.65257,44.9388],[-93.65123,44.93915],[-93.64939,44.93923],[-93.64828,44.93955],[-93.64679,44.94062],[-93.64613,44.9379],[-93.64503,44.9377],[-93.64418,44.93824],[-93.64131,44.93832],[-93.63966,44.9376],[-93.63848,44.93754],[-93.63569,44.93833],[-93.63273,44.93708],[-93.62649,44.93668],[-93.62551,44.93693],[-93.62378,44.93877],[-93.62299,44.94041],[-93.62222,44.94099],[-93.62047,44.9417],[-93.61995,44.94224],[-93.61795,44.94195],[-93.61783,44.94295],[-93.6188,44.94284],[-93.61915,44.94371],[-93.62034,44.94362],[-93.62216,44.94395],[-93.62524,44.94309],[-93.62678,44.94186],[-93.62761,44.94249],[-93.62604,44.9439],[-93.62445,44.94587],[-93.62414,44.94769],[-93.62482,44.9489],[-93.6264,44.94953],[-93.62868,44.94886],[-93.63005,44.94918],[-93.63149,44.95083],[-93.63349,44.95161],[-93.6352,44.95168],[-93.63646,44.95209],[-93.63811,44.95312],[-93.64079,44.95266],[-93.64335,44.95168]],[[-93.63764,44.9405],[-93.63726,44.94173],[-93.63646,44.94096],[-93.63764,44.9405]]],[[[-93.61221,44.96455],[-93.61365,44.96412],[-93.61437,44.96323],[-93.61421,44.96174],[-93.61252,44.96157],[-93.61108,44.9602],[-93.61174,44.95797],[-93.61058,44.95587],[-93.61114,44.95493],[-93.61051,44.95347],[-93.60782,44.95341],[-93.60493,44.95399],[-93.60158,44.95558],[-93.60088,44.95606],[-93.59778,44.95435],[-93.60108,44.95235],[-93.60209,44.95135],[-93.60311,44.94944],[-93.60311,44.94686],[-93.60512,44.94717],[-93.60647,44.94828],[-93.60646,44.94961],[-93.60696,44.95127],[-93.60691,44.95195],[-93.60827,44.95253],[-93.60971,44.95241],[-93.61178,44.9515],[-93.61431,44.95101],[-93.61583,44.94997],[-93.61636,44.95038],[-93.61559,44.95123],[-93.61547,44.95213],[-93.61674,44.95246],[-93.61733,44.95335],[-93.61885,44.9538],[-93.61846,44.95463],[-93.61683,44.95365],[-93.61547,44.95333],[-93.61408,44.95258],[-93.61329,44.9527],[-93.61187,44.95355],[-93.61166,44.95493],[-93.61485,44.9587],[-93.61661,44.95901],[-93.61796,44.96059],[-93.61876,44.96247],[-93.61924,44.96305],[-93.62086,44.96385],[-93.62177,44.96501],[-93.62248,44.96526],[-93.626,44.96492],[-93.62589,44.9654],[-93.62705,44.96668],[-93.62766,44.96682],[-93.6287,44.96894],[-93.62957,44.97023],[-93.63076,44.97049],[-93.6327,44.96953],[-93.63227,44.96808],[-93.63248,44.96684],[-93.63064,44.96575],[-93.62877,44.96491],[-93.62852,44.96434],[-93.62682,44.9642],[-93.62818,44.96212],[-93.62789,44.96149],[-93.62659,44.96133],[-93.62385,44.95992],[-93.62286,44.95862],[-93.62402,44.95628],[-93.62403,44.95544],[-93.62337,44.95408],[-93.62311,44.95183],[-93.62252,44.95134],[-93.62086,44.95098],[-93.61833,44.95069],[-93.61634,44.95019],[-93.61615,44.94944],[-93.61705,44.94893],[-93.61765,44.94805],[-93.61778,44.94701],[-93.6167,44.94526],[-93.61616,44.94387],[-93.61611,44.94267],[-93.61507,44.94125],[-93.61373,44.94012],[-93.61224,44.93925],[-93.61005,44.93835],[-93.60821,44.93845],[-93.60691,44.93898],[-93.60516,44.94052],[-93.60377,44.94089],[-93.60056,44.94139],[-93.59625,44.94244],[-93.59482,44.94358],[-93.59426,44.94439],[-93.593,44.94499],[-93.59152,44.9445],[-93.59081,44.94338],[-93.58843,44.94149],[-93.58668,44.94091],[-93.58329,44.9414],[-93.58183,44.94202],[-93.58042,44.94356],[-93.58,44.94491],[-93.58138,44.94521],[-93.58102,44.94612],[-93.57959,44.94582],[-93.57929,44.94721],[-93.58017,44.94817],[-93.58158,44.94821],[-93.58189,44.94744],[-93.58307,44.9471],[-93.58391,44.94787],[-93.58442,44.95014],[-93.58529,44.95103],[-93.58965,44.95366],[-93.59279,44.9544],[-93.59624,44.95446],[-93.5973,44.95433],[-93.60061,44.95624],[-93.59969,44.95796],[-93.60002,44.95881],[-93.60185,44.95927],[-93.60242,44.9598],[-93.60193,44.96042],[-93.59858,44.95905],[-93.59684,44.95874],[-93.59569,44.95775],[-93.59465,44.95757],[-93.59294,44.95834],[-93.59328,44.9591],[-93.59516,44.95986],[-93.59547,44.96042],[-93.5968,44.96095],[-93.5993,44.96234],[-93.60072,44.96395],[-93.60255,44.96472],[-93.60356,44.96488],[-93.60548,44.96445],[-93.60691,44.96444],[-93.60797,44.96476],[-93.61202,44.96472],[-93.61246,44.96533],[-93.61085,44.96691],[-93.60951,44.96866],[-93.609,44.96965],[-93.61015,44.97094],[-93.61122,44.97127],[-93.61094,44.97223],[-93.61319,44.97279],[-93.61376,44.97386],[-93.61446,44.9744],[-93.61669,44.97465],[-93.61885,44.97415],[-93.6202,44.9734],[-93.62116,44.97143],[-93.62285,44.9714],[-93.62257,44.97016],[-93.62171,44.96964],[-93.62094,44.96772],[-93.6195,44.96637],[-93.61873,44.96524],[-93.61737,44.9647],[-93.61583,44.96454],[-93.6127,44.96525],[-93.61221,44.96455]]],[[[-93.59311,44.92854],[-93.59301,44.9281],[-93.59084,44.92763],[-93.58919,44.92786],[-93.58654,44.92763],[-93.5858,44.92736],[-93.58473,44.92633],[-93.58347,44.92423],[-93.583,44.92473],[-93.58171,44.92492],[-93.58206,44.92301],[-93.58213,44.92115],[-93.58171,44.91876],[-93.58123,44.91753],[-93.58051,44.91703],[-93.57838,44.91613],[-93.57487,44.91576],[-93.5734,44.91433],[-93.57407,44.91384],[-93.57445,44.91291],[-93.57715,44.91324],[-93.57838,44.91291],[-93.5807,44.91287],[-93.58335,44.91202],[-93.58458,44.91227],[-93.58532,44.91475],[-93.5872,44.91558],[-93.58819,44.91471],[-93.58949,44.91437],[-93.58971,44.91287],[-93.59053,44.91109],[-93.59023,44.91035],[-93.59014,44.90878],[-93.58874,44.90666],[-93.58723,44.90648],[-93.58609,44.90673],[-93.58348,44.90591],[-93.58261,44.90465],[-93.5814,44.90361],[-93.57897,44.903],[-93.57873,44.90344],[-93.57663,44.90342],[-93.57789,44.90429],[-93.57606,44.90465],[-93.57432,44.90586],[-93.57308,44.90612],[-93.5707,44.90751],[-93.57007,44.90892],[-93.56719,44.90857],[-93.56622,44.90802],[-93.56618,44.90642],[-93.56525,44.90509],[-93.56334,44.9036],[-93.56179,44.90365],[-93.56033,44.90336],[-93.5597,44.90425],[-93.55912,44.90625],[-93.55954,44.90739],[-93.55927,44.90926],[-93.5596,44.9098],[-93.56071,44.91017],[-93.56107,44.91088],[-93.55938,44.91233],[-93.55851,44.91388],[-93.55388,44.91515],[-93.55251,44.91642],[-93.55138,44.91714],[-93.54965,44.91874],[-93.54911,44.92057],[-93.54706,44.92243],[-93.54684,44.9231],[-93.54749,44.92463],[-93.54812,44.92539],[-93.54645,44.92584],[-93.54447,44.92671],[-93.54291,44.92716],[-93.54146,44.92922],[-93.54057,44.93017],[-93.5393,44.93028],[-93.53902,44.92888],[-93.5379,44.92858],[-93.53388,44.92823],[-93.53247,44.92873],[-93.53047,44.93012],[-93.52977,44.9302],[-93.52967,44.9288],[-93.52994,44.92832],[-93.53159,44.92729],[-93.53208,44.92665],[-93.53441,44.92623],[-93.53604,44.9253],[-93.53806,44.92454],[-93.53806,44.92403],[-93.53599,44.92308],[-93.53462,44.92394],[-93.53349,44.92391],[-93.53154,44.92296],[-93.53177,44.92216],[-93.52943,44.92176],[-93.52884,44.92126],[-93.527,44.92067],[-93.52647,44.92164],[-93.52828,44.92333],[-93.52963,44.92339],[-93.53025,44.92587],[-93.52815,44.92586],[-93.52611,44.92679],[-93.52503,44.9282],[-93.52591,44.92989],[-93.52603,44.93068],[-93.52784,44.93204],[-93.52777,44.93304],[-93.5269,44.93571],[-93.52813,44.9364],[-93.52886,44.93596],[-93.53016,44.93384],[-93.53104,44.93412],[-93.53133,44.93566],[-93.53095,44.93798],[-93.53111,44.93938],[-93.52981,44.94121],[-93.52919,44.94262],[-93.52955,44.94405],[-93.52677,44.94379],[-93.52596,44.94347],[-93.52381,44.9433],[-93.52264,44.94284],[-93.52099,44.94314],[-93.51933,44.94497],[-93.51939,44.94575],[-93.52236,44.94679],[-93.52286,44.94728],[-93.52417,44.94953],[-93.52427,44.95079],[-93.52472,44.95163],[-93.52379,44.95269],[-93.52224,44.95357],[-93.52111,44.95471],[-93.52096,44.95593],[-93.52166,44.95696],[-93.51901,44.95628],[-93.51715,44.95631],[-93.51479,44.95712],[-93.51511,44.95619],[-93.51413,44.95502],[-93.51195,44.95384],[-93.5105,44.95379],[-93.50891,44.95302],[-93.50757,44.95201],[-93.50687,44.95187],[-93.50444,44.95223],[-93.50288,44.95228],[-93.5018,44.95198],[-93.50123,44.951],[-93.49997,44.94971],[-93.4984,44.95006],[-93.49819,44.95042],[-93.49577,44.95045],[-93.49559,44.94925],[-93.49404,44.9481],[-93.49296,44.94866],[-93.49264,44.94943],[-93.49176,44.94965],[-93.49056,44.95045],[-93.49008,44.95152],[-93.48859,44.95362],[-93.48745,44.9532],[-93.48631,44.95444],[-93.48616,44.95497],[-93.48765,44.95629],[-93.48964,44.95663],[-93.49231,44.95836],[-93.49361,44.95766],[-93.49507,44.95749],[-93.49617,44.95776],[-93.49787,44.95721],[-93.49987,44.95553],[-93.5006,44.9554],[-93.50149,44.95624],[-93.50021,44.95795],[-93.4993,44.95872],[-93.4987,44.95979],[-93.49816,44.96223],[-93.49876,44.96446],[-93.50021,44.96533],[-93.50325,44.9658],[-93.50418,44.96541],[-93.50731,44.96542],[-93.50976,44.96699],[-93.51004,44.96776],[-93.51191,44.9687],[-93.51567,44.96959],[-93.5168,44.96957],[-93.51945,44.9687],[-93.52047,44.96819],[-93.52199,44.96663],[-93.52466,44.96454],[-93.5262,44.96266],[-93.52617,44.96111],[-93.52766,44.96035],[-93.52827,44.96043],[-93.52929,44.95952],[-93.52993,44.95797],[-93.53076,44.95744],[-93.53107,44.95648],[-93.53472,44.95951],[-93.53437,44.9608],[-93.53517,44.96227],[-93.53606,44.9629],[-93.53825,44.96362],[-93.54106,44.96391],[-93.54209,44.96368],[-93.54344,44.9638],[-93.54488,44.96352],[-93.55127,44.96555],[-93.55131,44.96677],[-93.55247,44.96662],[-93.55486,44.96545],[-93.55605,44.96454],[-93.55741,44.96485],[-93.55857,44.96425],[-93.55835,44.96217],[-93.55764,44.9615],[-93.5575,44.96057],[-93.55876,44.95843],[-93.55894,44.95724],[-93.55957,44.95586],[-93.55862,44.95471],[-93.55846,44.95362],[-93.55754,44.95119],[-93.557,44.95022],[-93.55835,44.95001],[-93.56145,44.95296],[-93.5615,44.956],[-93.5627,44.95645],[-93.56638,44.95647],[-93.56827,44.95601],[-93.57169,44.95426],[-93.57198,44.95361],[-93.57282,44.95339],[-93.57488,44.95117],[-93.57588,44.94942],[-93.57585,44.9477],[-93.57642,44.94675],[-93.57893,44.94514],[-93.57979,44.94348],[-93.57946,44.943],[-93.57787,44.94241],[-93.57692,44.94141],[-93.57594,44.93991],[-93.57537,44.93835],[-93.5757,44.9378],[-93.57885,44.93551],[-93.57848,44.9318],[-93.57915,44.93196],[-93.57933,44.93278],[-93.58054,44.93368],[-93.58235,44.93449],[-93.58338,44.93591],[-93.58333,44.93703],[-93.58401,44.93827],[-93.58804,44.93909],[-93.59032,44.93941],[-93.59316,44.93931],[-93.59671,44.93869],[-93.59872,44.93857],[-93.601,44.9378],[-93.6014,44.93639],[-93.60044,44.93536],[-93.60016,44.93379],[-93.59945,44.93293],[-93.59731,44.93228],[-93.596,44.93251],[-93.59477,44.93178],[-93.59458,44.93053],[-93.59509,44.92916],[-93.59408,44.92854],[-93.59311,44.92854]],[[-93.5798,44.92563],[-93.5792,44.92629],[-93.57886,44.92926],[-93.57548,44.92975],[-93.57459,44.92965],[-93.57343,44.92865],[-93.57339,44.92808],[-93.57048,44.92628],[-93.57077,44.92537],[-93.56977,44.925],[-93.56918,44.92419],[-93.5708,44.92352],[-93.57294,44.9241],[-93.57468,44.92363],[-93.57664,44.92365],[-93.57613,44.92441],[-93.57647,44.92544],[-93.5773,44.92576],[-93.5798,44.92563]],[[-93.57341,44.92975],[-93.57268,44.93001],[-93.5718,44.93116],[-93.5713,44.93027],[-93.57185,44.92966],[-93.57341,44.92975]],[[-93.57162,44.9281],[-93.57153,44.92889],[-93.5707,44.93101],[-93.57079,44.93164],[-93.5674,44.93155],[-93.56532,44.93206],[-93.56267,44.93228],[-93.56037,44.93287],[-93.55848,44.93368],[-93.55792,44.93444],[-93.55806,44.93551],[-93.55758,44.93589],[-93.55557,44.9356],[-93.55386,44.93453],[-93.55245,44.93405],[-93.55182,44.93278],[-93.55304,44.93212],[-93.5534,44.9312],[-93.55298,44.93033],[-93.55463,44.92977],[-93.55599,44.93016],[-93.5554,44.93102],[-93.55604,44.93201],[-93.55757,44.93232],[-93.55878,44.93229],[-93.56111,44.93162],[-93.56248,44.93018],[-93.56224,44.9291],[-93.5626,44.92815],[-93.56177,44.92678],[-93.56073,44.92623],[-93.5602,44.9247],[-93.56303,44.92368],[-93.56385,44.92424],[-93.56451,44.92534],[-93.56495,44.92687],[-93.56598,44.92726],[-93.56889,44.92705],[-93.57014,44.92649],[-93.57135,44.92721],[-93.57162,44.9281]]],[[[-93.66832,44.92935],[-93.67067,44.92825],[-93.67108,44.92724],[-93.67014,44.92363],[-93.6705,44.92289],[-93.67135,44.92239],[-93.67256,44.9224],[-93.67355,44.92177],[-93.67457,44.92212],[-93.67638,44.92208],[-93.67714,44.92145],[-93.67979,44.92068],[-93.68153,44.92074],[-93.68361,44.91933],[-93.68383,44.91855],[-93.68282,44.91747],[-93.68158,44.91693],[-93.68046,44.91683],[-93.67937,44.91719],[-93.67827,44.9163],[-93.67679,44.9161],[-93.67409,44.91652],[-93.67354,44.91712],[-93.67476,44.91857],[-93.6729,44.91822],[-93.66958,44.9187],[-93.67202,44.91744],[-93.67199,44.91668],[-93.67086,44.9156],[-93.6712,44.91422],[-93.67185,44.91334],[-93.67371,44.91185],[-93.67611,44.91118],[-93.67691,44.91018],[-93.67764,44.90847],[-93.67737,44.90711],[-93.67649,44.90642],[-93.67506,44.90602],[-93.6734,44.90508],[-93.67284,44.90441],[-93.67211,44.90191],[-93.67213,44.90072],[-93.67054,44.89918],[-93.66875,44.898],[-93.66812,44.89714],[-93.66675,44.89618],[-93.66444,44.89493],[-93.66218,44.89526],[-93.66083,44.89575],[-93.65912,44.89579],[-93.65895,44.89463],[-93.65971,44.89386],[-93.6591,44.89282],[-93.65789,44.89209],[-93.65662,44.89218],[-93.65596,44.89316],[-93.65532,44.89321],[-93.65441,44.89218],[-93.65249,44.89096],[-93.64504,44.89106],[-93.63724,44.89106],[-93.63895,44.89199],[-93.63988,44.89371],[-93.63846,44.89744],[-93.63751,44.89943],[-93.63705,44.90108],[-93.63647,44.9017],[-93.63506,44.90242],[-93.63333,44.9039],[-93.63095,44.9044],[-93.63019,44.90368],[-93.62935,44.90422],[-93.6284,44.9059],[-93.62874,44.90767],[-93.62973,44.90902],[-93.62875,44.91007],[-93.6266,44.90823],[-93.62429,44.90728],[-93.62264,44.90707],[-93.62078,44.90736],[-93.61799,44.90826],[-93.61655,44.90832],[-93.61507,44.9076],[-93.6137,44.90755],[-93.61046,44.90831],[-93.60834,44.90923],[-93.60679,44.90937],[-93.6026,44.90944],[-93.60196,44.90965],[-93.60058,44.91101],[-93.59934,44.91277],[-93.59823,44.91474],[-93.59735,44.91701],[-93.59765,44.91967],[-93.59628,44.91931],[-93.59511,44.91831],[-93.59273,44.91832],[-93.59035,44.91881],[-93.58937,44.91973],[-93.58867,44.92151],[-93.58907,44.92225],[-93.59048,44.92267],[-93.59374,44.92646],[-93.59527,44.92717],[-93.5974,44.92753],[-93.598,44.92811],[-93.59965,44.92893],[-93.60042,44.92834],[-93.59963,44.92724],[-93.60143,44.9268],[-93.60267,44.92683],[-93.60531,44.92788],[-93.60758,44.92818],[-93.60865,44.92924],[-93.60838,44.92998],[-93.60905,44.93095],[-93.61176,44.93322],[-93.61204,44.93266],[-93.61462,44.93183],[-93.61789,44.92973],[-93.61706,44.92878],[-93.6158,44.92837],[-93.61458,44.92659],[-93.61506,44.92482],[-93.61444,44.92417],[-93.61318,44.92487],[-93.61328,44.92644],[-93.61082,44.92418],[-93.61017,44.92289],[-93.60881,44.92173],[-93.60932,44.92104],[-93.6126,44.92043],[-93.61399,44.92032],[-93.61577,44.92085],[-93.61734,44.92424],[-93.61902,44.92555],[-93.62118,44.92641],[-93.62191,44.92706],[-93.62209,44.92783],[-93.62087,44.9287],[-93.61963,44.93079],[-93.61999,44.93181],[-93.62184,44.93388],[-93.62323,44.93445],[-93.6273,44.93467],[-93.63019,44.93392],[-93.6309,44.93323],[-93.63055,44.93258],[-93.63103,44.93197],[-93.63115,44.9304],[-93.63219,44.92917],[-93.63382,44.92779],[-93.63438,44.92703],[-93.63447,44.92612],[-93.63384,44.92555],[-93.63541,44.92492],[-93.6362,44.92418],[-93.63685,44.92305],[-93.63695,44.92162],[-93.63838,44.92099],[-93.63957,44.92011],[-93.64091,44.91869],[-93.64276,44.9192],[-93.64439,44.91919],[-93.64915,44.91856],[-93.6515,44.91777],[-93.65199,44.91704],[-93.65297,44.91681],[-93.65425,44.9155],[-93.65425,44.91486],[-93.65277,44.914],[-93.65173,44.91392],[-93.65102,44.9131],[-93.65148,44.91213],[-93.65262,44.91153],[-93.65306,44.91263],[-93.65392,44.91365],[-93.65537,44.91455],[-93.65667,44.91498],[-93.6589,44.91535],[-93.66053,44.91522],[-93.66171,44.91576],[-93.65974,44.91693],[-93.65901,44.91819],[-93.65906,44.91878],[-93.66029,44.92014],[-93.65977,44.92054],[-93.65633,44.92117],[-93.65475,44.92208],[-93.65266,44.92233],[-93.65179,44.92297],[-93.65143,44.92399],[-93.65121,44.92658],[-93.6514,44.92799],[-93.65278,44.9292],[-93.65407,44.92962],[-93.65629,44.92986],[-93.65723,44.92973],[-93.66181,44.93038],[-93.66369,44.93013],[-93.66441,44.93029],[-93.66832,44.92935]],[[-93.65118,44.91079],[-93.64934,44.91095],[-93.64782,44.91172],[-93.64576,44.91209],[-93.64453,44.91303],[-93.64344,44.91248],[-93.64323,44.9133],[-93.64432,44.9132],[-93.64399,44.91413],[-93.64294,44.91407],[-93.64099,44.91332],[-93.63939,44.91334],[-93.63746,44.9113],[-93.63571,44.91273],[-93.63542,44.91388],[-93.63603,44.91537],[-93.63384,44.91492],[-93.63236,44.91409],[-93.63044,44.91338],[-93.63255,44.91226],[-93.63469,44.91176],[-93.63623,44.91179],[-93.63703,44.91043],[-93.63828,44.90914],[-93.63898,44.90896],[-93.6398,44.91033],[-93.64135,44.91014],[-93.64192,44.90942],[-93.64098,44.90874],[-93.64009,44.9088],[-93.63971,44.90705],[-93.64032,44.90652],[-93.64167,44.90684],[-93.64318,44.90671],[-93.64463,44.90614],[-93.64614,44.9059],[-93.64713,44.90515],[-93.64898,44.90549],[-93.65225,44.90741],[-93.65219,44.90804],[-93.65134,44.90916],[-93.65118,44.91079]],[[-93.66379,44.89915],[-93.66359,44.90125],[-93.66193,44.90179],[-93.6603,44.90121],[-93.66034,44.90081],[-93.66287,44.89942],[-93.66379,44.89915]],[[-93.65822,44.8978],[-93.65742,44.89803],[-93.65548,44.89798],[-93.65678,44.8969],[-93.65822,44.8978]],[[-93.65514,44.90065],[-93.653,44.90291],[-93.65152,44.90343],[-93.64868,44.90284],[-93.64707,44.90031],[-93.64868,44.90034],[-93.65003,44.89946],[-93.64878,44.89886],[-93.64951,44.8979],[-93.65122,44.89814],[-93.65171,44.89903],[-93.65088,44.89962],[-93.65106,44.90042],[-93.65221,44.90096],[-93.65379,44.90098],[-93.65514,44.90065]],[[-93.62847,44.91567],[-93.62799,44.91824],[-93.62539,44.91761],[-93.62529,44.9168],[-93.62566,44.91502],[-93.62681,44.91499],[-93.62847,44.91567]]],[[[-93.50496,44.94568],[-93.50727,44.94571],[-93.50548,44.94473],[-93.50435,44.94496],[-93.50496,44.94568]]],[[[-93.6838,44.9207],[-93.68266,44.92124],[-93.68232,44.92188],[-93.68307,44.92235],[-93.68455,44.92236],[-93.68865,44.92304],[-93.68996,44.92285],[-93.6912,44.92235],[-93.69169,44.92175],[-93.69581,44.91897],[-93.69715,44.91988],[-93.6979,44.91916],[-93.70024,44.9189],[-93.70147,44.91721],[-93.70387,44.91628],[-93.70353,44.9156],[-93.70431,44.91439],[-93.70277,44.91372],[-93.70144,44.91407],[-93.70063,44.91468],[-93.6979,44.91513],[-93.6965,44.91588],[-93.69542,44.91612],[-93.69341,44.91606],[-93.69256,44.91556],[-93.69399,44.91471],[-93.69531,44.91498],[-93.69728,44.9144],[-93.69634,44.91387],[-93.69567,44.91256],[-93.69502,44.91219],[-93.69438,44.91112],[-93.69326,44.91138],[-93.69254,44.91244],[-93.69185,44.91245],[-93.69048,44.91179],[-93.69061,44.91102],[-93.6924,44.91048],[-93.69311,44.90954],[-93.69475,44.91006],[-93.69637,44.90969],[-93.69691,44.90879],[-93.69684,44.90759],[-93.6956,44.90671],[-93.69415,44.90678],[-93.69231,44.90654],[-93.69062,44.90569],[-93.68901,44.90454],[-93.68719,44.90406],[-93.68497,44.90382],[-93.68326,44.9033],[-93.68134,44.90328],[-93.68034,44.90408],[-93.67949,44.90562],[-93.67958,44.90721],[-93.67841,44.90938],[-93.67902,44.91028],[-93.67966,44.91396],[-93.68044,44.91441],[-93.68239,44.91493],[-93.68524,44.91631],[-93.68765,44.91852],[-93.68795,44.91919],[-93.68769,44.92013],[-93.68557,44.92002],[-93.68477,44.91906],[-93.6838,44.9207]]],[[[-93.48644,44.95328],[-93.48661,44.95302],[-93.4837,44.94997],[-93.48095,44.94754],[-93.4805,44.94774],[-93.48222,44.94901],[-93.48521,44.95203],[-93.48356,44.95358],[-93.48372,44.95399],[-93.48559,44.95458],[-93.48644,44.95328]]],[[[-93.5589,44.9041],[-93.55824,44.90362],[-93.55694,44.90386],[-93.55575,44.90301],[-93.5547,44.90285],[-93.55377,44.90341],[-93.55146,44.90333],[-93.54913,44.90387],[-93.5485,44.90511],[-93.54753,44.90581],[-93.54715,44.90726],[-93.5455,44.90867],[-93.54588,44.90991],[-93.54677,44.91043],[-93.54947,44.91084],[-93.55098,44.91078],[-93.55219,44.91116],[-93.55424,44.91077],[-93.5558,44.9109],[-93.55731,44.90951],[-93.55641,44.90946],[-93.55582,44.90874],[-93.55621,44.90806],[-93.55749,44.90741],[-93.55743,44.90664],[-93.55891,44.9057],[-93.5589,44.9041]]]]},"properties":{"lake":"lake-minnetonka","acres":13733}},
{"type":"Feature","geometry":{"type":"Polygon","coordinates":[[[-92.98482,45.06589],[-92.98336,45.06591],[-92.98046,45.06472],[-92.97803,45.0642],[-92.97609,45.06314],[-92.97493,45.06143],[-92.9722,45.06092],[-92.97145,45.06029],[-92.97071,45.05873],[-92.96766,45.05701],[-92.96804,45.05587],[-92.96692,45.05538],[-92.96505,45.05558],[-92.96363,45.056],[-92.96232,45.05693],[-92.96185,45.05976],[-92.9621,45.06095],[-92.96179,45.06132],[-92.96313,45.06366],[-92.96256,45.0662],[-92.96132,45.06903],[-92.96097,45.07063],[-92.96156,45.07137],[-92.96168,45.07369],[-92.96208,45.07477],[-92.96444,45.07766],[-92.96489,45.07981],[-92.96412,45.08054],[-92.96515,45.08143],[-92.96622,45.08193],[-92.96902,45.08231],[-92.97165,45.08203],[-92.97346,45.0807],[-92.97436,45.07885],[-92.97526,45.07804],[-92.97683,45.07733],[-92.97751,45.07739],[-92.97741,45.07855],[-92.97672,45.08009],[-92.97605,45.08075],[-92.9758,45.08176],[-92.97485,45.08243],[-92.97201,45.08293],[-92.97039,45.08344],[-92.96966,45.08456],[-92.97,45.08511],[-92.97188,45.08586],[-92.97266,45.08858],[-92.97375,45.08936],[-92.97498,45.08924],[-92.9759,45.08999],[-92.9776,45.09093],[-92.97915,45.09154],[-92.98116,45.09338],[-92.98216,45.09392],[-92.98318,45.0939],[-92.98417,45.0943],[-92.98345,45.09557],[-92.98408,45.09643],[-92.98532,45.0971],[-92.98746,45.09774],[-92.98985,45.09763],[-92.99416,45.09646],[-92.99598,45.09549],[-92.99659,45.09338],[-92.99811,45.09276],[-92.99951,45.09129],[-92.99987,45.08987],[-92.99939,45.08783],[-92.99868,45.08678],[-92.9953,45.08594],[-92.99387,45.08458],[-92.99171,45.08367],[-92.99099,45.08167],[-92.98991,45.08068],[-92.98794,45.08046],[-92.98683,45.08076],[-92.98627,45.0797],[-92.98675,45.07888],[-92.98947,45.07705],[-92.98993,45.077],[-92.99068,45.07901],[-92.99173,45.07992],[-92.9933,45.08059],[-92.99406,45.0814],[-92.99458,45.08315],[-92.99512,45.08376],[-92.99685,45.08432],[-92.99709,45.0859],[-92.99777,45.08611],[-92.9997,45.08566],[-93.00382,45.08378],[-93.00583,45.08231],[-93.01097,45.0802],[-93.01416,45.07853],[-93.01579,45.07796],[-93.01632,45.07546],[-93.01552,45.07412],[-93.01384,45.07365],[-93.01266,45.07456],[-93.01086,45.07371],[-93.01043,45.07298],[-93.01075,45.07105],[-93.00943,45.0704],[-93.00766,45.07056],[-93.00547,45.07033],[-93.00409,45.06932],[-93.00288,45.06892],[-93.00127,45.06912],[-92.99986,45.07074],[-92.99653,45.07121],[-92.99121,45.0699],[-92.98955,45.07005],[-92.9881,45.06901],[-92.98629,45.06726],[-92.98631,45.06655],[-92.98482,45.06589]]]},"properties":{"lake":"white-bear-lake","acres":2400}},
{"type":"Feature","geometry":{"type":"MultiPolygon","coordinates":[[[[-93.43731,44.72016],[-93.43684,44.7195],[-93.4351,44.71926],[-93.43486,44.71976],[-93.43256,44.71987],[-93.43209,44.72114],[-93.43049,44.72119],[-93.43049,44.72026],[-93.42946,44.71985],[-93.42798,44.72037],[-93.42708,44.72101],[-93.42737,44.72163],[-93.42675,44.72267],[-93.42609,44.72464],[-93.42538,44.72535],[-93.42469,44.72671],[-93.42247,44.72568],[-93.42235,44.72657],[-93.42095,44.7272],[-93.42006,44.72609],[-93.41836,44.72489],[-93.41623,44.72462],[-93.41631,44.7239],[-93.41488,44.72344],[-93.41303,44.72396],[-93.41331,44.72458],[-93.41449,44.7254],[-93.41294,44.72557],[-93.41179,44.72659],[-93.40939,44.72661],[-93.40832,44.72574],[-93.40613,44.72559],[-93.40638,44.72658],[-93.40734,44.72748],[-93.40862,44.72751],[-93.41185,44.72721],[-93.41139,44.72863],[-93.41273,44.73034],[-93.41403,44.7305],[-93.41611,44.7304],[-93.41578,44.73137],[-93.41391,44.73234],[-93.41318,44.73188],[-93.41199,44.73215],[-93.40921,44.73344],[-93.40801,44.73351],[-93.40706,44.73302],[-93.4049,44.73252],[-93.40408,44.73252],[-93.40259,44.73308],[-93.40152,44.73419],[-93.39942,44.73348],[-93.39659,44.73353],[-93.39421,44.73459],[-93.39313,44.73544],[-93.39171,44.73277],[-93.39022,44.73282],[-93.38718,44.73346],[-93.387,44.73435],[-93.38797,44.7347],[-93.38891,44.73419],[-93.39064,44.73468],[-93.3914,44.73629],[-93.3911,44.73694],[-93.39019,44.73744],[-93.39023,44.73822],[-93.39099,44.73974],[-93.38984,44.7403],[-93.38706,44.73972],[-93.38622,44.73908],[-93.38434,44.73885],[-93.38275,44.73954],[-93.38349,44.74023],[-93.3856,44.74056],[-93.3866,44.7411],[-93.38826,44.74022],[-93.38879,44.74057],[-93.38663,44.74162],[-93.38674,44.74237],[-93.38929,44.74209],[-93.39059,44.74221],[-93.39029,44.74304],[-93.38887,44.74388],[-93.38923,44.74456],[-93.38781,44.74516],[-93.38847,44.74585],[-93.38917,44.74541],[-93.3895,44.74459],[-93.39083,44.74449],[-93.39204,44.74352],[-93.39335,44.74372],[-93.39381,44.74339],[-93.39542,44.74322],[-93.3969,44.74247],[-93.3996,44.74292],[-93.40039,44.74275],[-93.40138,44.7416],[-93.40009,44.74077],[-93.40033,44.74027],[-93.40206,44.73983],[-93.40249,44.73912],[-93.40372,44.73828],[-93.40528,44.73867],[-93.40709,44.73954],[-93.4109,44.73885],[-93.41233,44.73886],[-93.41533,44.73853],[-93.41636,44.73822],[-93.41768,44.73692],[-93.41845,44.73658],[-93.4207,44.73616],[-93.42336,44.73532],[-93.42477,44.73418],[-93.42626,44.73415],[-93.42888,44.73437],[-93.42951,44.73419],[-93.43069,44.73271],[-93.4324,44.73202],[-93.43223,44.73052],[-93.43349,44.72964],[-93.43161,44.7296],[-93.43157,44.73058],[-93.42966,44.73044],[-93.42841,44.73057],[-93.42705,44.73128],[-93.42561,44.73048],[-93.42621,44.73005],[-93.42948,44.72971],[-93.42925,44.72839],[-93.42842,44.72723],[-93.43146,44.7266],[-93.43109,44.7281],[-93.43256,44.72902],[-93.43254,44.72731],[-93.43397,44.72771],[-93.43559,44.72722],[-93.43651,44.72592],[-93.4358,44.72327],[-93.43448,44.72334],[-93.43357,44.72145],[-93.43442,44.7216],[-93.43511,44.72107],[-93.43683,44.72065],[-93.43731,44.72016]]],[[[-93.44169,44.71958],[-93.44196,44.71902],[-93.44347,44.71829],[-93.44699,44.71781],[-93.4483,44.7163],[-93.45079,44.71657],[-93.45573,44.71453],[-93.45645,44.71392],[-93.45686,44.71255],[-93.45565,44.71244],[-93.45478,44.71184],[-93.45629,44.71052],[-93.45539,44.70914],[-93.45522,44.70831],[-93.45623,44.70725],[-93.45775,44.70769],[-93.45811,44.7082],[-93.4595,44.70853],[-93.461,44.70817],[-93.46144,44.70757],[-93.46026,44.70702],[-93.45919,44.70577],[-93.4552,44.70589],[-93.45059,44.70781],[-93.44959,44.70731],[-93.44743,44.7077],[-93.44674,44.7081],[-93.44592,44.71027],[-93.44266,44.71053],[-93.44152,44.71104],[-93.43964,44.71109],[-93.43919,44.7118],[-93.43952,44.71305],[-93.43876,44.71392],[-93.4378,44.71426],[-93.43702,44.71502],[-93.43492,44.71553],[-93.435,44.71832],[-93.43577,44.71894],[-93.43649,44.7182],[-93.43752,44.7179],[-93.4392,44.7192],[-93.43951,44.71979],[-93.43867,44.72066],[-93.4398,44.72133],[-93.44091,44.72097],[-93.44169,44.71958]],[[-93.45271,44.71117],[-93.45197,44.71155],[-93.45094,44.71109],[-93.44793,44.71113],[-93.44863,44.70997],[-93.44973,44.7098],[-93.45037,44.71073],[-93.45187,44.71041],[-93.45271,44.71117]]]]},"properties":{"lake":"prior-lake","acres":1310}},
{"type":"Feature","geometry":{"type":"Polygon","coordinates":[[[-92.91448,45.26859],[-92.91651,45.26834],[-92.91771,45.26792],[-92.91866,45.26716],[-92.91975,45.26882],[-92.91935,45.27038],[-92.92075,45.27223],[-92.92338,45.27223],[-92.92752,45.27282],[-92.92998,45.27273],[-92.931,45.27155],[-92.93188,45.2724],[-92.93344,45.27213],[-92.93648,45.27217],[-92.93831,45.27262],[-92.93955,45.2726],[-92.94032,45.2734],[-92.9415,45.274],[-92.94492,45.27465],[-92.9462,45.27507],[-92.94809,45.2752],[-92.95,45.27504],[-92.95246,45.27391],[-92.95434,45.27176],[-92.95571,45.27116],[-92.95624,45.27192],[-92.95605,45.27279],[-92.95641,45.2739],[-92.95587,45.27461],[-92.95573,45.27579],[-92.95654,45.27671],[-92.95609,45.27903],[-92.95635,45.28016],[-92.95753,45.28209],[-92.9579,45.28507],[-92.95782,45.28619],[-92.95718,45.28723],[-92.95541,45.28875],[-92.95494,45.28941],[-92.95519,45.29141],[-92.95583,45.29236],[-92.95692,45.29311],[-92.95879,45.29391],[-92.96218,45.29456],[-92.96702,45.29493],[-92.97054,45.29456],[-92.97254,45.29349],[-92.97311,45.29205],[-92.97479,45.28966],[-92.97766,45.28712],[-92.97872,45.2854],[-92.98072,45.28397],[-92.98253,45.28172],[-92.98301,45.27902],[-92.98364,45.27644],[-92.98341,45.27562],[-92.98107,45.27388],[-92.97936,45.27334],[-92.97547,45.27265],[-92.97337,45.27273],[-92.9709,45.2734],[-92.97009,45.27441],[-92.96904,45.27476],[-92.96781,45.27452],[-92.96866,45.27375],[-92.96887,45.27249],[-92.96821,45.27171],[-92.96833,45.27073],[-92.96763,45.26875],[-92.96794,45.26731],[-92.96941,45.26686],[-92.96964,45.26595],[-92.96713,45.26607],[-92.96632,45.26647],[-92.96594,45.26753],[-92.96665,45.26882],[-92.9665,45.27073],[-92.96808,45.27239],[-92.96758,45.27381],[-92.96684,45.27404],[-92.96425,45.27228],[-92.96173,45.27182],[-92.95987,45.27175],[-92.95881,45.27119],[-92.95903,45.27033],[-92.96,45.26939],[-92.9601,45.26863],[-92.95938,45.26785],[-92.95738,45.26689],[-92.95515,45.26495],[-92.95398,45.26446],[-92.94825,45.26379],[-92.94751,45.26358],[-92.94576,45.264],[-92.94271,45.26649],[-92.94065,45.26769],[-92.93879,45.26802],[-92.93657,45.269],[-92.93704,45.26777],[-92.93675,45.26632],[-92.93689,45.26552],[-92.93639,45.26359],[-92.93265,45.26166],[-92.93182,45.26142],[-92.93014,45.25957],[-92.92597,45.25888],[-92.92513,45.25826],[-92.92439,45.25691],[-92.92442,45.25517],[-92.92389,45.25529],[-92.92286,45.25415],[-92.92046,45.25349],[-92.91866,45.25359],[-92.91704,45.2543],[-92.91543,45.25389],[-92.91317,45.2538],[-92.91258,45.25352],[-92.9107,45.25425],[-92.90876,45.25582],[-92.90868,45.25677],[-92.90957,45.25771],[-92.91007,45.25973],[-92.91059,45.2607],[-92.91168,45.26151],[-92.91138,45.26369],[-92.91145,45.26485],[-92.91289,45.26842],[-92.91448,45.26859]]]},"properties":{"lake":"forest-lake","acres":2251}}
]}